NORAD_CAT_ID,OBJECT_NAME,OBJECT_TYPE,EPOCH,MEAN_MOTION,ECCENTRICITY,INCLINATION,RA_OF_ASC_NODE,ARG_OF_PERICENTER,MEAN_ANOMALY,BSTAR,MEAN_MOTION_DOT,MEAN_MOTION_DDOT,TLE_LINE0,TLE_LINE1,TLE_LINE2,SEMIMAJOR_AXIS,PERIOD,APOGEE,PERIGEE,DECAYED
51790.0,STARLINK-3631,PAYLOAD,2023-11-10 23:32:04,15.08844819,0.0001427,53.2162,203.6147,106.6517,253.4632,0.00010291,1.35e-05,0.0,0 STARLINK-3631,1 51790U 22017Y   23314.98060724  .00001350  00000-0  10291-3 0  9998,2 51790  53.2162 203.6147 0001427 106.6517 253.4632 15.08844819 95698,6917.866,95.437,540.718,538.743,0.0
51790.0,STARLINK-3631,PAYLOAD,2023-11-11 21:47:28,15.08837572,0.0001649,53.2171,199.4506,109.8945,250.2225,9.0085e-06,-1.45e-06,0.0,0 STARLINK-3631,1 51790U 22017Y   23315.90797366 -.00000145  00000-0  90085-5 0  9993,2 51790  53.2171 199.4506 0001649 109.8945 250.2225 15.08837572 95832,6917.888,95.438,540.894,538.612,0.0
51790.0,STARLINK-3631,PAYLOAD,2023-11-11 23:22:51,15.08839552,0.0001469,53.2168,199.1554,102.6162,257.4995,1.7585e-05,-8e-08,0.0,0 STARLINK-3631,1 51790U 22017Y   23315.97421251 -.00000008  00000-0  17585-4 0  9998,2 51790  53.2168 199.1554 0001469 102.6162 257.4995 15.08839552 95844,6917.882,95.438,540.763,538.731,0.0
51790.0,STARLINK-3631,PAYLOAD,2023-11-12 16:52:06,15.08830085,0.000176,53.217,195.8848,118.7449,241.372,9.5912e-05,1.238e-05,0.0,0 STARLINK-3631,1 51790U 22017Y   23316.70285665  .00001238  00000-0  95912-4 0  9992,2 51790  53.2170 195.8848 0001760 118.7449 241.3720 15.08830085 95958,6917.911,95.438,540.993,538.558,0.0
51790.0,STARLINK-3631,PAYLOAD,2023-11-12 21:38:15,15.08843673,0.000153,53.2172,194.9932,109.3471,250.7687,-4.4163e-05,-9.91e-06,0.0,0 STARLINK-3631,1 51790U 22017Y   23316.90157389 -.00000991  00000-0 -44163-4 0  9994,2 51790  53.2172 194.9932 0001530 109.3471 250.7687 15.08843673 95986,6917.869,95.437,540.793,538.676,0.0
51790.0,STARLINK-3631,PAYLOAD,2023-11-13 00:49:02,15.08806372,0.00018,53.2173,194.3979,109.0585,251.0602,0.00050847,7.806e-05,0.0,0 STARLINK-3631,1 51790U 22017Y   23317.03406162  .00007806  00000-0  50847-3 0  9990,2 51790  53.2173 194.3979 0001800 109.0585 251.0602 15.08806372 96005,6917.983,95.44,541.093,538.603,0.0
51790.0,STARLINK-3631,PAYLOAD,2023-11-13 08:45:57,15.08844072,0.0001427,53.2169,192.9104,103.7905,256.3246,2.1961e-06,-2.53e-06,0.0,0 STARLINK-3631,1 51790U 22017Y   23317.36525169 -.00000253  00000-0  21961-5 0  9992,2 51790  53.2169 192.9104 0001427 103.7905 256.3246 15.08844072 96052,6917.868,95.437,540.72,538.746,0.0
51790.0,STARLINK-3631,PAYLOAD,2023-11-14 02:15:12,15.08833553,0.000127,53.2159,189.6374,95.3089,264.8048,0.00018058,2.587e-05,0.0,0 STARLINK-3631,1 51790U 22017Y   23318.09389510  .00002587  00000-0  18058-3 0  9993,2 51790  53.2159 189.6374 0001270  95.3089 264.8048 15.08833553 96166,6917.9,95.438,540.644,538.887,0.0
51790.0,STARLINK-3631,PAYLOAD,2023-11-15 00:30:36,15.08837823,0.0001254,53.2161,185.4739,90.4947,269.6189,2.3933e-05,9.3e-07,0.0,0 STARLINK-3631,1 51790U 22017Y   23319.02125737  .00000093  00000-0  23933-4 0  9995,2 51790  53.2161 185.4739 0001254  90.4947 269.6189 15.08837823 96308,6917.887,95.438,540.62,538.885,0.0
51790.0,STARLINK-3631,PAYLOAD,2023-11-15 21:10:37,15.08838476,8.26e-05,53.2172,181.6055,107.2936,252.8146,8.6916e-05,1.096e-05,0.0,0 STARLINK-3631,1 51790U 22017Y   23319.88237311  .00001096  00000-0  86916-4 0  9995,2 51790  53.2172 181.6055 0000826 107.2936 252.8146 15.08838476 96434,6917.885,95.438,540.321,539.179,0.0
51790.0,STARLINK-3631,PAYLOAD,2023-11-16 00:21:23,15.08842971,0.0001524,53.2134,181.0114,100.3622,259.7542,9.9825e-05,1.301e-05,0.0,0 STARLINK-3631,1 51790U 22017Y   23320.01485068  .00001301  00000-0  99825-4 0  9998,2 51790  53.2134 181.0114 0001524 100.3622 259.7542 15.08842971 96457,6917.871,95.437,540.791,538.682,0.0
51790.0,STARLINK-3631,PAYLOAD,2023-11-16 21:01:24,15.0883562,0.0001434,53.216,177.1477,87.1219,272.9937,-4.9436e-06,-3.67e-06,0.0,0 STARLINK-3631,1 51790U 22017Y   23320.87597843 -.00000367  00000-0 -49436-5 0  9994,2 51790  53.2160 177.1477 0001434  87.1219 272.9937 15.08835620 96580,6917.894,95.438,540.751,538.767,0.0
51790.0,STARLINK-3631,PAYLOAD,2023-11-17 00:12:10,15.0883452,7.62e-05,53.218,176.5528,84.4818,275.6261,-1.136e-05,-4.68e-06,0.0,0 STARLINK-3631,1 51790U 22017Y   23321.00845963 -.00000468  00000-0 -11360-4 0  9995,2 51790  53.2180 176.5528 0000762  84.4818 275.6261 15.08834520 96601,6917.897,95.438,540.289,539.235,0.0
51790.0,STARLINK-3631,PAYLOAD,2023-11-17 08:09:08,15.08813654,0.0001666,53.2147,175.0679,79.1331,280.9849,-0.00020432,-3.536e-05,0.0,0 STARLINK-3631,1 51790U 22017Y   23321.33968363 -.00003536  00000-0 -20432-3 0  9999,2 51790  53.2147 175.0679 0001666  79.1331 280.9849 15.08813654 96651,6917.961,95.439,540.978,538.673,0.0
51790.0,STARLINK-3631,PAYLOAD,2023-11-17 20:52:14,15.08811513,8.85e-05,53.2191,172.6895,69.624,290.4847,-0.0001293,-2.343e-05,0.0,0 STARLINK-3631,1 51790U 22017Y   23321.86960795 -.00002343  00000-0 -12930-3 0  9997,2 51790  53.2191 172.6895 0000885  69.6240 290.4847 15.08811513 96733,6917.967,95.439,540.445,539.22,0.0
51790.0,STARLINK-3631,PAYLOAD,2023-11-18 00:02:59,15.08824791,0.0001866,53.2152,172.092,90.9149,269.2057,-1.6829e-05,-5.56e-06,0.0,0 STARLINK-3631,1 51790U 22017Y   23322.00207835 -.00000556  00000-0 -16829-4 0  9999,2 51790  53.2152 172.0920 0001866  90.9149 269.2057 15.08824791 96759,6917.927,95.439,541.083,538.501,0.0
51790.0,STARLINK-3631,PAYLOAD,2023-11-18 20:42:59,15.08826121,0.0001582,53.2162,168.2282,85.6618,274.4554,0.00028933,4.318e-05,0.0,0 STARLINK-3631,1 51790U 22017Y   23322.86318850  .00004318  00000-0  28933-3 0  9999,2 51790  53.2162 168.2282 0001582  85.6618 274.4554 15.08826121 96888,6917.923,95.438,540.882,538.693,0.0
51790.0,STARLINK-3631,PAYLOAD,2023-11-19 06:15:18,15.08828638,0.0001872,53.2191,166.4439,87.6821,272.4385,0.00026588,3.945e-05,0.0,0 STARLINK-3631,1 51790U 22017Y   23323.26063126  .00003945  00000-0  26588-3 0  9996,2 51790  53.2191 166.4439 0001872  87.6821 272.4385 15.08828638 96946,6917.915,95.438,541.075,538.485,0.0
51790.0,STARLINK-3631,PAYLOAD,2023-11-19 20:33:45,15.08854548,0.0001439,53.2151,163.7671,89.3099,270.8058,0.00011567,1.554e-05,0.0,0 STARLINK-3631,1 51790U 22017Y   23323.85677988  .00001554  00000-0  11567-3 0  9993,2 51790  53.2151 163.7671 0001439  89.3099 270.8058 15.08854548 97034,6917.836,95.437,540.696,538.705,0.0
51790.0,STARLINK-3631,PAYLOAD,2023-11-20 06:06:05,15.08845358,0.0001436,53.215,161.9828,89.8198,270.2959,2.9494e-05,1.82e-06,0.0,0 STARLINK-3631,1 51790U 22017Y   23324.25422529  .00000182  00000-0  29494-4 0  9992,2 51790  53.2150 161.9828 0001436  89.8198 270.2959 15.08845358 97098,6917.864,95.437,540.722,538.736,0.0
51790.0,STARLINK-3631,PAYLOAD,2023-11-20 21:59:56,15.08847528,0.0001453,53.2157,159.0093,91.3829,268.733,-1.0223e-05,-4.51e-06,0.0,0 STARLINK-3631,1 51790U 22017Y   23324.91662220 -.00000451  00000-0 -10223-4 0  9990,2 51790  53.2157 159.0093 0001453  91.3829 268.7330 15.08847528 97192,6917.857,95.437,540.728,538.717,0.0
51790.0,STARLINK-3631,PAYLOAD,2023-11-21 05:56:51,15.08844083,0.0001475,53.2155,157.5221,90.5962,269.5199,-3.413e-05,-8.31e-06,0.0,0 STARLINK-3631,1 51790U 22017Y   23325.24782393 -.00000831  00000-0 -34130-4 0  9996,2 51790  53.2155 157.5221 0001475  90.5962 269.5199 15.08844083 97240,6917.868,95.437,540.753,538.713,0.0
51790.0,STARLINK-3631,PAYLOAD,2023-11-21 20:15:20,15.08844763,0.0001491,53.2157,154.8459,91.0171,269.0992,-5.9554e-05,-1.236e-05,0.0,0 STARLINK-3631,1 51790U 22017Y   23325.84398319 -.00001236  00000-0 -59554-4 0  9990,2 51790  53.2157 154.8459 0001491  91.0171 269.0992 15.08844763 97332,6917.866,95.437,540.762,538.699,0.0
51790.0,STARLINK-3631,PAYLOAD,2023-11-22 12:09:11,15.08844465,0.0001503,53.2159,151.8721,92.6776,267.4388,7.1072e-05,8.43e-06,0.0,0 STARLINK-3631,1 51790U 22017Y   23326.50637814  .00000843  00000-0  71072-4 0  9990,2 51790  53.2159 151.8721 0001503  92.6776 267.4388 15.08844465 97436,6917.867,95.437,540.771,538.692,0.0
51790.0,STARLINK-3631,PAYLOAD,2023-11-22 20:06:06,15.08848885,0.0001477,53.2158,150.3851,93.6371,266.479,0.00010663,1.41e-05,0.0,0 STARLINK-3631,1 51790U 22017Y   23326.83757437  .00001410  00000-0  10663-3 0  9999,2 51790  53.2158 150.3851 0001477  93.6371 266.4790 15.08848885 97486,6917.853,95.437,540.74,538.696,0.0
51790.0,STARLINK-3631,PAYLOAD,2023-11-23 12:00:00,15.08789844,0.0001765,53.2158,147.4129,100.0303,260.0889,0.00075767,0.00011774,0.0,0 STARLINK-3631,1 51790U 22017Y   23327.50000441  .00011774  00000-0  75767-3 0  9990,2 51790  53.2158 147.4129 0001765 100.0303 260.0889 15.08789844 97588,6918.034,95.441,541.12,538.678,0.0
51790.0,STARLINK-3631,PAYLOAD,2023-11-23 18:21:31,15.08832898,0.0001579,53.2162,146.2234,83.2153,276.9019,-2.1321e-06,-3.22e-06,0.0,0 STARLINK-3631,1 51790U 22017Y   23327.76494956 -.00000322  00000-0 -21321-5 0  9994,2 51790  53.2162 146.2234 0001579  83.2153 276.9019 15.08832898 97629,6917.902,95.438,540.859,538.675,0.0
51790.0,STARLINK-3631,PAYLOAD,2023-11-23 21:32:17,15.08830518,0.0001635,53.2165,145.6291,74.0869,286.0303,5.3425e-05,5.62e-06,0.0,0 STARLINK-3631,1 51790U 22017Y   23327.89743026  .00000562  00000-0  53425-4 0  9996,2 51790  53.2165 145.6291 0001635  74.0869 286.0303 15.08830518 97640,6917.909,95.438,540.905,538.643,0.0
51790.0,STARLINK-3631,PAYLOAD,2023-11-24 11:50:45,15.08839323,0.0001718,53.217,142.9507,100.8623,259.2563,3.5053e-05,2.7e-06,0.0,0 STARLINK-3631,1 51790U 22017Y   23328.49358525  .00000270  00000-0  35053-4 0  9992,2 51790  53.2170 142.9507 0001718 100.8623 259.2563 15.08839323 97737,6917.882,95.438,540.936,538.559,0.0
51790.0,STARLINK-3631,PAYLOAD,2023-11-24 21:23:04,15.08845531,0.000159,53.2168,141.1664,96.8432,263.2741,7.2923e-05,8.73e-06,0.0,0 STARLINK-3631,1 51790U 22017Y   23328.89102046  .00000873  00000-0  72923-4 0  9997,2 51790  53.2168 141.1664 0001590  96.8432 263.2741 15.08845531 97796,6917.863,95.437,540.828,538.629,0.0
